NORAD_CAT_ID,OBJECT_NAME,OBJECT_TYPE,EPOCH,MEAN_MOTION,ECCENTRICITY,INCLINATION,RA_OF_ASC_NODE,ARG_OF_PERICENTER,MEAN_ANOMALY,BSTAR,MEAN_MOTION_DOT,MEAN_MOTION_DDOT,TLE_LINE0,TLE_LINE1,TLE_LINE2,SEMIMAJOR_AXIS,PERIOD,APOGEE,PERIGEE,DECAYED
52676.0,STARLINK-4006,PAYLOAD,2023-01-20 08:13:09,15.08844325,0.0001489,53.2148,251.3086,106.4394,253.6762,0.00027953,4.164e-05,0.0,0 STARLINK-4006,1 52676U 22053W   23020.34247303  .00004164  00000-0  27953-3 0  9995,2 52676  53.2148 251.3086 0001489 106.4394 253.6762 15.08844325 38287,6917.866999999999,95.437,540.762,538.702,0.0
52676.0,STARLINK-4006,PAYLOAD,2023-01-20 19:20:51,15.08842946,0.0001554999999999,53.2152,249.2271,104.6752,255.4412,0.00029493,4.409e-05,0.0,0 STARLINK-4006,1 52676U 22053W   23020.80615518  .00004409  00000-0  29493-3 0  9996,2 52676  53.2152 249.2271 0001555 104.6752 255.4412 15.08842946 37925,6917.871,95.437,540.812,538.661,0.0
52676.0,STARLINK-4006,PAYLOAD,2023-01-22 07:54:43,15.08843779,0.0001554,53.2153,242.382,86.1836,273.9334,0.00011679,1.571e-05,0.0,0 STARLINK-4006,1 52676U 22053W   23022.32967440  .00001571  00000-0  11679-3 0  9993,2 52676  53.2153 242.3820 0001554  86.1836 273.9334 15.08843779 38155,6917.869000000001,95.437,540.809,538.659,0.0
52676.0,STARLINK-4006,PAYLOAD,2023-01-22 23:48:35,15.08840054,0.0001402,53.2147,239.4085,88.38,271.7352,4.0499e-05,3.57e-06,0.0,0 STARLINK-4006,1 52676U 22053W   23022.99207675  .00000357  00000-0  40499-4 0  9997,2 52676  53.2147 239.4085 0001402  88.3800 271.7352 15.08840054 38255,6917.88,95.438,540.715,538.775,0.0
52676.0,STARLINK-4006,PAYLOAD,2023-01-23 23:39:19,15.08885899,0.0001142,53.2148,234.948,92.5072,267.6051,0.00080481,0.0001256,0.0,0 STARLINK-4006,1 52676U 22053W   23023.98564678  .00012560  00000-0  80481-3 0  9999,2 52676  53.2148 234.9480 0001142  92.5072 267.6051 15.08885899 38407,6917.74,95.435,540.395,538.815,0.0
52676.0,STARLINK-4006,PAYLOAD,2023-01-24 09:11:40,15.08841755,0.0001133,53.2135,233.1656,107.8551,252.2564,9.8439e-05,1.279e-05,0.0,0 STARLINK-4006,1 52676U 22053W   23024.38310632  .00001279  00000-0  98439-4 0  9991,2 52676  53.2135 233.1656 0001133 107.8551 252.2564 15.08841755 38469,6917.875,95.437,540.524,538.956,0.0
52676.0,STARLINK-4006,PAYLOAD,2023-01-24 20:19:22,15.08834227,8.71e-05,53.2138,231.085,94.1211,265.9881,-9.5742e-05,-1.811e-05,0.0,0 STARLINK-4006,1 52676U 22053W   23024.84679107 -.00001811  00000-0 -95742-4 0  9995,2 52676  53.2138 231.0850 0000871  94.1211 265.9881 15.08834227 38531,6917.898,95.438,540.366,539.16,0.0
52676.0,STARLINK-4006,PAYLOAD,2023-01-25 09:02:27,15.08832031,8.190000000000001e-05,53.2138,228.7055,100.3127,259.7957,-0.00010772,-2.001e-05,0.0,0 STARLINK-4006,1 52676U 22053W   23025.37671294 -.00002001  00000-0 -10772-3 0  9994,2 52676  53.2138 228.7055 0000819 100.3127 259.7957 15.08832031 39042,6917.905,95.438,540.336,539.203,0.0
52676.0,STARLINK-4006,PAYLOAD,2023-01-25 20:10:10,15.08834745,8.41e-05,53.2149,226.6243,98.8728,261.2359,-1.974e-05,-6.02e-06,0.0,0 STARLINK-4006,1 52676U 22053W   23025.84039750 -.00000602  00000-0 -19740-4 0  9991,2 52676  53.2149 226.6243 0000841  98.8728 261.2359 15.08834745 39119,6917.896,95.438,540.3430000000001,539.18,0.0
52676.0,STARLINK-4006,PAYLOAD,2023-01-25 23:20:55,15.08850339,0.0001210999999999,53.2146,226.0286,163.3213,196.7819,-0.00020602,-3.566e-05,0.0,0 STARLINK-4006,1 52676U 22053W   23025.97286833 -.00003566  00000-0 -20602-3 0  9991,2 52676  53.2146 226.0286 0001211 163.3213 196.7819 15.08850339 38700,6917.849,95.437,540.552,538.876,0.0
52676.0,STARLINK-4006,PAYLOAD,2023-01-26 12:04:01,15.08831302,6.809999999999999e-05,53.2146,223.6494,115.4728,244.6335,0.00012966,1.776e-05,0.0,0 STARLINK-4006,1 52676U 22053W   23026.50279517  .00001776  00000-0  12966-3 0  9995,2 52676  53.2146 223.6494 0000681 115.4728 244.6335 15.08831302 39215,6917.906999999999,95.438,540.243,539.3009999999999,0.0
52676.0,STARLINK-4006,PAYLOAD,2023-01-26 20:00:57,15.08832327,6.69e-05,53.2146,222.1625,113.8867,246.2195,0.00021296,3.103e-05,0.0,0 STARLINK-4006,1 52676U 22053W   23026.83399592  .00003103  00000-0  21296-3 0  9999,2 52676  53.2146 222.1625 0000669 113.8867 246.2195 15.08832327 38834,6917.904,95.438,540.232,539.306,0.0
52676.0,STARLINK-4006,PAYLOAD,2023-01-27 19:51:44,15.08833371,6.63e-05,53.214,217.7017,106.2233,253.8832,7.9298e-05,9.74e-06,0.0,0 STARLINK-4006,1 52676U 22053W   23027.82760128  .00000974  00000-0  79298-4 0  9995,2 52676  53.2140 217.7017 0000663 106.2233 253.8832 15.08833371 39417,6917.901,95.438,540.224,539.307,0.0
52676.0,STARLINK-4006,PAYLOAD,2023-01-27 23:02:30,15.08837155,6.92e-05,53.2142,217.1065,101.6744,258.4326,9.699e-05,1.256e-05,0.0,0 STARLINK-4006,1 52676U 22053W   23027.96007978  .00001256  00000-0  96990-4 0  9999,2 52676  53.2142 217.1065 0000692 101.6744 258.4326 15.08837155 39002,6917.889,95.438,540.2330000000001,539.275,0.0
52676.0,STARLINK-4006,PAYLOAD,2023-01-28 05:24:03,15.08838702,6.8e-05,53.2142,215.917,100.1318,259.975,9.4341e-05,1.214e-05,0.0,0 STARLINK-4006,1 52676U 22053W   23028.22503916  .00001214  00000-0  94341-4 0  9994,2 52676  53.2142 215.9170 0000680 100.1318 259.9750 15.08838702 39470,6917.884,95.438,540.22,539.279,0.0
52676.0,STARLINK-4006,PAYLOAD,2023-01-28 21:17:54,15.08845718,6.47e-05,53.2149,212.9433,96.1175,263.989,0.00012246,1.662e-05,0.0,0 STARLINK-4006,1 52676U 22053W   23028.88743579  .00001662  00000-0  12246-3 0  9997,2 52676  53.2149 212.9433 0000647  96.1175 263.9890 15.08845718 39570,6917.863,95.437,540.175,539.28,0.0
52676.0,STARLINK-4006,PAYLOAD,2023-01-29 06:50:13,15.0884049,6.96e-05,53.2147,211.1591,99.813,260.2941,0.0001074,1.422e-05,0.0,0 STARLINK-4006,1 52676U 22053W   23029.28487911  .00001422  00000-0  10740-3 0  9998,2 52676  53.2147 211.1591 0000696  99.8130 260.2941 15.08840490 39208,6917.879,95.438,540.225,539.262,0.0
52676.0,STARLINK-4006,PAYLOAD,2023-01-29 21:08:41,15.08842311,6.7e-05,53.2148,208.4824,99.8411,260.2657,0.00010769,1.427e-05,0.0,0 STARLINK-4006,1 52676U 22053W   23029.88103764  .00001427  00000-0  10769-3 0  9991,2 52676  53.2148 208.4824 0000670  99.8411 260.2657 15.08842311 39726,6917.873,95.437,540.202,539.275,0.0
52676.0,STARLINK-4006,PAYLOAD,2023-01-30 05:05:37,15.08840998,6.62e-05,53.2148,206.9957,98.7198,261.3869,7.1852e-05,8.56e-06,0.0,0 STARLINK-4006,1 52676U 22053W   23030.21223903  .00000856  00000-0  71852-4 0  9994,2 52676  53.2148 206.9957 0000662  98.7198 261.3869 15.08840998 39778,6917.877,95.437,540.2,539.284,0.0
52676.0,STARLINK-4006,PAYLOAD,2023-01-30 14:37:57,15.08821631,6.05e-05,53.2148,205.2116,109.7958,250.3099,-0.00011511,-2.118e-05,0.0,0 STARLINK-4006,1 52676U 22053W   23030.60969804 -.00002118  00000-0 -11511-3 0  9994,2 52676  53.2148 205.2116 0000605 109.7958 250.3099 15.08821631 39407,6917.937,95.439,540.22,539.383,0.0
52676.0,STARLINK-4006,PAYLOAD,2023-01-30 20:59:31,15.0881558,5.5e-05,53.215,204.0224,105.8143,254.291,-0.00018892,-3.291e-05,0.0,0 STARLINK-4006,1 52676U 22053W   23030.87466666 -.00003291  00000-0 -18892-3 0  9993,2 52676  53.2150 204.0224 0000550 105.8143 254.2910 15.08815580 39871,6917.955,95.439,540.201,539.44,0.0
52676.0,STARLINK-4006,PAYLOAD,2023-01-31 04:56:26,15.08829733,5.95e-05,53.2149,202.5349,93.3285,266.7775,-3.6127e-05,-8.62e-06,0.0,0 STARLINK-4006,1 52676U 22053W   23031.20585695 -.00000862  00000-0 -36127-4 0  9998,2 52676  53.2149 202.5349 0000595  93.3285 266.7775 15.08829733 39497,6917.912,95.438,540.188,539.365,0.0
52676.0,STARLINK-4006,PAYLOAD,2023-01-31 14:28:44,15.08835491,0.0001187,53.2152,200.7516,56.7611,303.3494,7.1345e-05,8.48e-06,0.0,0 STARLINK-4006,1 52676U 22053W   23031.60329448  .00000848  00000-0  71345-4 0  9997,2 52676  53.2152 200.7516 0001187  56.7611 303.3494 15.08835491 39989,6917.894,95.438,540.58,538.938,0.0
52676.0,STARLINK-4006,PAYLOAD,2023-02-01 11:08:44,15.08830641,8.22e-05,53.2188,196.8854,271.3048,88.785,0.00027094,4.026e-05,0.0,0 STARLINK-4006,1 52676U 22053W   23032.46440691  .00004026  00000-0  27094-3 0  9999,2 52676  53.2188 196.8854 0000822 271.3048  88.7850 15.08830641 40111,6917.909,95.438,540.343,539.205,0.0
52676.0,STARLINK-4006,PAYLOAD,2023-02-01 14:19:30,15.08839306,9.41e-05,53.215,196.2931,46.5,313.607,0.00031512,4.731e-05,0.0,0 STARLINK-4006,1 52676U 22053W   23032.59688625  .00004731  00000-0  31512-3 0  9997,2 52676  53.2150 196.2931 0000941  46.5000 313.6070 15.08839306 39706,6917.883,95.438,540.398,539.097,0.0
52676.0,STARLINK-4006,PAYLOAD,2023-02-01 20:41:03,15.08841002,0.0001043,53.2152,195.1015,56.2031,303.906,0.00037064,5.616e-05,0.0,0 STARLINK-4006,1 52676U 22053W   23032.86184494  .00005616  00000-0  37064-3 0  9993,2 52676  53.2152 195.1015 0001043  56.2031 303.9060 15.08841002 40175,6917.877,95.437,540.464,539.021,0.0
52676.0,STARLINK-4006,PAYLOAD,2023-02-03 02:53:22,15.08846824,0.000128,53.2164,189.4493,54.8182,305.293,9.4795e-05,1.221e-05,0.0,0 STARLINK-4006,1 52676U 22053W   23034.12040254  .00001221  00000-0  94795-4 0  9992,2 52676  53.2164 189.4493 0001280  54.8182 305.2930 15.08846824 39938,6917.86,95.437,540.61,538.839,0.0
52676.0,STARLINK-4006,PAYLOAD,2023-02-03 12:25:42,15.0883471,0.0001235,53.2141,187.6658,95.6069,264.5064,-9.0698e-06,-4.32e-06,0.0,0 STARLINK-4006,1 52676U 22053W   23034.51785031 -.00000432  00000-0 -90698-5 0  9998,2 52676  53.2141 187.6658 0001235  95.6069 264.5064 15.08834710 40425,6917.897,95.438,540.616,538.907,0.0
52676.0,STARLINK-4006,PAYLOAD,2023-02-04 10:41:05,15.0883247,0.0001089,53.2148,183.5034,92.6936,267.418,0.00010791,1.43e-05,0.0,0 STARLINK-4006,1 52676U 22053W   23035.44520382  .00001430  00000-0  10791-3 0  9998,2 52676  53.2148 183.5034 0001089  92.6936 267.4180 15.08832470 40132,6917.903,95.438,540.522,539.015,0.0
52676.0,STARLINK-4006,PAYLOAD,2023-02-04 13:51:51,15.08835126,0.0001074,53.2148,182.9086,93.9724,266.1391,0.0001297,1.777e-05,0.0,0 STARLINK-4006,1 52676U 22053W   23035.57768226  .00001777  00000-0  12970-3 0  9998,2 52676  53.2148 182.9086 0001074  93.9724 266.1391 15.08835126 40585,6917.895,95.438,540.503,539.017,0.0
